DMSP 5D-3 F16 (USA 172) 
1 28054U 03048A   26170.59099147 -.00000041  00000+0  25126-5 0  9990
2 28054  98.9889 194.4353 0007847 134.0866  35.6768 14.14483152169829
METEOSAT-9 (MSG-2)      
1 28912U 05049B   26169.83258696  .00000114  00000+0  00000+0 0  9995
2 28912   9.3658  54.1535 0001716 345.3182 212.9689  1.00272994  7018
DMSP 5D-3 F17 (USA 191) 
1 29522U 06050A   26170.57388036 -.00000002  00000+0  21282-4 0  9998
2 29522  98.7378 177.0952 0011086  53.2255 306.9935 14.14993198 12763
FENGYUN 3A              
1 32958U 08026A   26170.58473851  .00000060  00000+0  48994-4 0  9993
2 32958  98.6883 111.3731 0009679 117.3894 242.8269 14.19571552935743
GOES 14                 
1 35491U 09033A   26170.54574402 -.00000306  00000+0  00000+0 0  9992
2 35491   1.6972  83.0156 0001874  12.8985 148.7848  1.00110252  6610
DMSP 5D-3 F18 (USA 210) 
1 35951U 09057A   26170.54541742  .00000225  00000+0  13945-3 0  9995
2 35951  98.9038 151.3094 0009942 242.0360 117.9807 14.14898063859926
EWS-G2 (GOES 15)        
1 36411U 10008A   26170.54910883  .00000014  00000+0  00000+0 0  9991
2 36411   1.2850  82.8099 0004891  42.1965  44.1162  1.00266562 59660
COMS 1                  
1 36744U 10032A   26170.40672929  .00000082  00000+0  00000+0 0  9993
2 36744   4.8116  75.3294 0011597  12.3107  30.9992  0.99162988 51115
FENGYUN 3B              
1 37214U 10059A   26170.58546862  .00000322  00000+0  18970-3 0  9996
2 37214  98.9611 216.6107 0022042 177.2090 339.0821 14.14842399807761
SUOMI NPP               
1 37849U 11061A   26170.59609727  .00000058  00000+0  48771-4 0  9994
2 37849  98.7953 111.4557 0001398   1.1879 358.9300 14.19517814758789
METEOSAT-10 (MSG-3)     
1 38552U 12035B   26170.03753987 -.00000014  00000+0  00000+0 0  9996
2 38552   4.6769  61.0157 0001437   1.0805 218.9888  1.00266258 50870
METOP-B                 
1 38771U 12049A   26170.58292929  .00000065  00000+0  49370-4 0  9991
2 38771  98.6504 222.0344 0002090  13.5618 346.5615 14.21433287713604
INSAT-3D                
1 39216U 13038B   26170.60123866 -.00000346  00000+0  00000+0 0  9996
2 39216   1.9334  82.5120 0000609 324.5351 206.7047  1.00268231 47100
FENGYUN 3C              
1 39260U 13052A   26170.58805976  .00000061  00000+0  52218-4 0  9993
2 39260  98.4987 144.3526 0015109  21.0341 339.1453 14.15755563658907
METEOR-M 2              
1 40069U 14037A   26170.60925378 -.00000061  00000+0 -88174-5 0  9991
2 40069  98.5119 146.2620 0006661  38.4035 321.7617 14.21461662619665
HIMAWARI-8              
1 40267U 14060A   26170.50808822 -.00000282  00000+0  00000+0 0  9990
2 40267   0.0160  43.9986 0001115  48.6916 138.6176  1.00271019 42783
FENGYUN 2G              
1 40367U 14090A   26170.62756089 -.00000310  00000+0  00000+0 0  9996
2 40367   5.6461  72.7877 0003844 159.3663   1.3020  1.00271046 42029
METEOSAT-11 (MSG-4)     
1 40732U 15034A   26170.25327440  .00000056  00000+0  00000+0 0  9991
2 40732   3.2061  71.0943 0002422 346.2706 310.9097  1.00263709  7231
ELEKTRO-L 2             
1 41105U 15074A   26169.03651196 -.00000126  00000+0  00000+0 0  9991
2 41105   6.6975  70.5132 0000902 256.1704 298.2263  1.00270556 38515
SENTINEL-3A             
1 41335U 16011A   26170.60097027  .00000029  00000+0  29912-4 0  9999
2 41335  98.6249 237.9501 0001418  99.4394 260.6947 14.26733295538401
INSAT-3DR               
1 41752U 16054A   26170.55110218 -.00000082  00000+0  00000+0 0  9993
2 41752   0.1127  86.2202 0010479 187.5702 266.3458  1.00271188 35845
HIMAWARI-9              
1 41836U 16064A   26170.27920780 -.00000281  00000+0  00000+0 0  9990
2 41836   0.0172 307.7649 0001007 181.4804  19.5297  1.00270188 35237
GOES 16                 
1 41866U 16071A   26170.51574201 -.00000097  00000+0  00000+0 0  9996
2 41866   0.3483  85.5118 0000273 335.3990 287.7989  1.00271294 35124
FENGYUN 4A              
1 41882U 16077A   26170.34713694 -.00000364  00000+0  00000+0 0  9999
2 41882   2.3289  80.2523 0008694 153.5825 282.4367  1.00267406 34954
CYGFM05                 
1 41884U 16078A   26170.55220100  .00018941  00000+0  25596-3 0  9990
2 41884  34.9561 244.9283 0007250 174.6266 185.4537 15.56759138529125
CYGFM04                 
1 41885U 16078B   26170.51544080  .00023510  00000+0  26370-3 0  9992
2 41885  34.9311 212.7437 0006974 215.9768 144.0489 15.61620009529364
CYGFM02                 
1 41886U 16078C   26170.51165565  .00027984  00000+0  27850-3 0  9993
2 41886  34.9391 207.2365 0007992 217.1702 142.8472 15.64626531529531
CYGFM01                 
1 41887U 16078D   26170.53988211  .00019995  00000+0  26333-3 0  9995
2 41887  34.9390 246.0480 0006988 168.3107 191.7780 15.57439583529075
CYGFM08                 
1 41888U 16078E   26170.55930979  .00022522  00000+0  26756-3 0  9995
2 41888  34.9419 225.4354 0008618 199.4755 160.5642 15.60122432529342
CYGFM07                 
1 41890U 16078G   26170.51830466  .00021971  00000+0  26022-3 0  9997
2 41890  34.9433 214.0474 0007394 215.1279 144.8959 15.60217463529362
CYGFM03                 
1 41891U 16078H   26170.48932189  .00021626  00000+0  25627-3 0  9996
2 41891  34.9389 216.1772 0006794 203.2035 156.8384 15.60210432529339
